{
  "type": "FeatureCollection",
  "features": [
    {
      "type": "Feature",
      "properties": {
        "nom": "4e Pont (Yopougon-Attecoube-Adjame)",
        "projet": "4EME_PONT",
        "longueur_km": 7.2,
        "source": "PTUA.ci - Viaduc Baie du Banco"
      },
      "geometry": {
        "type": "Polygon",
        "coordinates": [[
          [-4.085, 5.345], [-4.080, 5.330],
          [-4.060, 5.335], [-4.055, 5.340],
          [-4.050, 5.345], [-4.045, 5.350],
          [-4.040, 5.355], [-4.035, 5.360],
          [-4.030, 5.365], [-4.025, 5.370],
          [-4.020, 5.372], [-4.015, 5.375],
          [-4.010, 5.373], [-4.005, 5.370],
          [-4.008, 5.365], [-4.012, 5.360],
          [-4.018, 5.355], [-4.022, 5.350],
          [-4.028, 5.345], [-4.032, 5.340],
          [-4.038, 5.335], [-4.042, 5.330],
          [-4.048, 5.325], [-4.052, 5.328],
          [-4.058, 5.332], [-4.062, 5.335],
          [-4.068, 5.338], [-4.072, 5.342],
          [-4.078, 5.345], [-4.085, 5.345]
        ]]
      }
    },
    {
      "type": "Feature",
      "properties": {
        "nom": "Rocade Y4 (Cocody-Abobo-Anyama-Ebimpe)",
        "projet": "Y4",
        "longueur_km": 26.5,
        "source": "PTUA.ci - Voie Express Peripherique"
      },
      "geometry": {
        "type": "Polygon",
        "coordinates": [[
          [-3.950, 5.355], [-3.945, 5.350],
          [-3.955, 5.360], [-3.960, 5.365],
          [-3.970, 5.370], [-3.975, 5.375],
          [-3.985, 5.385], [-3.990, 5.395],
          [-4.000, 5.405], [-4.005, 5.415],
          [-4.010, 5.425], [-4.015, 5.435],
          [-4.020, 5.445], [-4.025, 5.455],
          [-4.030, 5.465], [-4.035, 5.475],
          [-4.040, 5.480], [-4.045, 5.478],
          [-4.042, 5.475], [-4.038, 5.470],
          [-4.033, 5.465], [-4.028, 5.455],
          [-4.023, 5.445], [-4.018, 5.435],
          [-4.013, 5.425], [-4.008, 5.415],
          [-4.003, 5.405], [-3.998, 5.395],
          [-3.993, 5.385], [-3.988, 5.375],
          [-3.978, 5.370], [-3.973, 5.365],
          [-3.963, 5.360], [-3.958, 5.355],
          [-3.953, 5.350], [-3.950, 5.355]
        ]]
      }
    },
    {
      "type": "Feature",
      "properties": {
        "nom": "Bd Latrille - Prolongement (Petro-Ivoire CHU Angre)",
        "projet": "LATRILLE",
        "longueur_km": 7.3,
        "source": "PTUA.ci - Boulevard Charles Bauza Donwahi"
      },
      "geometry": {
        "type": "Polygon",
        "coordinates": [[
          [-4.005, 5.335], [-4.000, 5.330],
          [-3.995, 5.335], [-3.990, 5.340],
          [-3.985, 5.345], [-3.980, 5.350],
          [-3.975, 5.355], [-3.970, 5.360],
          [-3.965, 5.365], [-3.960, 5.370],
          [-3.963, 5.372], [-3.968, 5.367],
          [-3.973, 5.362], [-3.978, 5.357],
          [-3.983, 5.352], [-3.988, 5.347],
          [-3.993, 5.342], [-3.998, 5.337],
          [-4.003, 5.332], [-4.005, 5.335]
        ]]
      }
    },
    {
      "type": "Feature",
      "properties": {
        "nom": "Sortie Est (Route Prison Civile - Agboville)",
        "projet": "SORTIE_EST",
        "longueur_km": 23.0,
        "source": "PTUA.ci - Voie Express Sortie Est"
      },
      "geometry": {
        "type": "Polygon",
        "coordinates": [[
          [-4.005, 5.380], [-4.000, 5.375],
          [-3.990, 5.380], [-3.980, 5.385],
          [-3.965, 5.390], [-3.950, 5.395],
          [-3.930, 5.400], [-3.910, 5.405],
          [-3.890, 5.410], [-3.870, 5.415],
          [-3.865, 5.412], [-3.875, 5.408],
          [-3.895, 5.403], [-3.915, 5.398],
          [-3.935, 5.393], [-3.955, 5.388],
          [-3.970, 5.383], [-3.985, 5.378],
          [-4.000, 5.373], [-4.005, 5.380]
        ]]
      }
    },
    {
      "type": "Feature",
      "properties": {
        "nom": "Sortie Ouest (Route de Dabou - Songon)",
        "projet": "SORTIE_OUEST",
        "longueur_km": 19.0,
        "source": "PTUA.ci - Voie Express Sortie Ouest"
      },
      "geometry": {
        "type": "Polygon",
        "coordinates": [[
          [-4.085, 5.335], [-4.080, 5.330],
          [-4.100, 5.325], [-4.115, 5.320],
          [-4.130, 5.315], [-4.145, 5.310],
          [-4.160, 5.305], [-4.175, 5.300],
          [-4.180, 5.302], [-4.170, 5.307],
          [-4.155, 5.312], [-4.140, 5.317],
          [-4.125, 5.322], [-4.110, 5.327],
          [-4.095, 5.332], [-4.085, 5.335]
        ]]
      }
    },
    {
      "type": "Feature",
      "properties": {
        "nom": "3 Echangeurs Bd Coffi Gadeau (ex-Mitterrand)",
        "projet": "ECHANGEURS_CG",
        "longueur_km": 3.5,
        "source": "PTUA.ci - JICA - Carrefour Ecole de Police, Bd de France, 2e tronc"
      },
      "geometry": {
        "type": "Polygon",
        "coordinates": [[
          [-4.020, 5.360], [-4.015, 5.355],
          [-4.010, 5.350], [-4.005, 5.345],
          [-4.000, 5.340], [-3.995, 5.335],
          [-3.990, 5.340], [-3.995, 5.345],
          [-4.000, 5.350], [-4.005, 5.355],
          [-4.010, 5.360], [-4.015, 5.365],
          [-4.020, 5.360]
        ]]
      }
    }
  ]
}
