{
  "type": "FeatureCollection",
  "features": [
    {
      "type": "Feature",
      "properties": {
        "nom": "Corridor 4e Pont (Yopougon-Attecoube-Adjame)",
        "projet": "4EME_PONT",
        "source": "Google Places + presse (AGEROUTE, PTUA.ci, KOACI, 7info)",
        "precision": "Estimation par points de repere publics, PAS un leve officiel CC-PTUA"
      },
      "geometry": {
        "type": "Polygon",
        "coordinates": [
          [
            [
              -4.03249107599359,
              5.341293459714504
            ],
            [
              -4.033643106998915,
              5.334316485578949
            ],
            [
              -4.018239636163169,
              5.3421794090545065
            ],
            [
              -4.017256765591645,
              5.3402449902280305
            ],
            [
              -4.036479684631933,
              5.330432312762987
            ],
            [
              -4.035248916701218,
              5.337886338573132
            ],
            [
              -4.089582613095811,
              5.316659231068166
            ],
            [
              -4.090369188474365,
              5.318681768384865
            ],
            [
              -4.03249107599359,
              5.341293459714504
            ]
          ]
        ]
      }
    },
    {
      "type": "Feature",
      "properties": {
        "nom": "Corridor Y4 section 1-2 (Bd France - Stade Ebimpe)",
        "projet": "Y4",
        "source": "Google Places + presse (AGEROUTE, PTUA.ci, KOACI, 7info)",
        "precision": "Estimation par points de repere publics, PAS un leve officiel CC-PTUA"
      },
      "geometry": {
        "type": "Polygon",
        "coordinates": [
          [
            [
              -3.952965412037804,
              5.357879147493876
            ],
            [
              -3.9664488341845705,
              5.356752485296194
            ],
            [
              -3.976097235056648,
              5.4496073037844175
            ],
            [
              -4.074776845700153,
              5.480269138148745
            ],
            [
              -4.074456154102198,
              5.48130586185378
            ],
            [
              -3.975093964234499,
              5.450431895914535
            ],
            [
              -3.96548156492651,
              5.357922514476852
            ],
            [
              -3.948635981650069,
              5.359330045739582
            ],
            [
              -3.9840133595926934,
              5.336989830871823
            ],
            [
              -3.9845906408746603,
              5.337908168906496
            ],
            [
              -3.952965412037804,
              5.357879147493876
            ]
          ]
        ]
      }
    }
  ]
}